Coordinates
version=1
nRows=60
nColumns=3
inDegrees=yes
endheader
time	knee_angle_r	hip_flexion_r
0.000000	5.149373	9.862931
0.020000	5.344921	12.712716
0.040000	5.929015	15.525350
0.060000	6.894042	18.264166
0.080000	8.227420	20.893459
0.100000	9.911767	23.378952
0.120000	11.925124	25.688242
0.140000	14.241246	27.791226
0.160000	16.829936	29.660487
0.180000	19.657449	31.271657
0.200000	22.686922	32.603731
0.220000	25.878863	33.639344
0.240000	29.191659	34.364995
0.260000	32.582123	34.771224
0.280000	36.006054	34.852736
0.300000	39.418818	34.608467
0.320000	42.775923	34.041602
0.340000	46.033604	33.159532
0.360000	49.149392	31.973754
0.380000	52.082669	30.499728
0.400000	54.795195	28.756670
0.420000	57.251607	26.767304
0.440000	59.419883	24.557562
0.460000	61.271755	22.156254
0.480000	62.783082	19.594684
0.500000	63.934162	16.906245
0.520000	64.709988	14.125986
0.540000	65.100446	11.290151
0.560000	65.100446	8.435711
0.580000	64.709988	5.599876
0.600000	63.934162	2.819617
0.620000	62.783082	0.131178
0.640000	61.271755	-2.430392
0.660000	59.419883	-4.831700
0.680000	57.251607	-7.041441
0.700000	54.795195	-9.030808
0.720000	52.082669	-10.773866
0.740000	49.149392	-12.247892
0.760000	46.033604	-13.433670
0.780000	42.775923	-14.315740
0.800000	39.418818	-14.882605
0.820000	36.006054	-15.126874
0.840000	32.582123	-15.045362
0.860000	29.191659	-14.639133
0.880000	25.878863	-13.913482
0.900000	22.686922	-12.877869
0.920000	19.657449	-11.545795
0.940000	16.829936	-9.934625
0.960000	14.241246	-8.065364
0.980000	11.925124	-5.962380
1.000000	9.911767	-3.653089
1.020000	8.227420	-1.167596
1.040000	6.894042	1.461696
1.060000	5.929015	4.200512
1.080000	5.344921	7.013146
1.100000	5.149373	9.862931
1.120000	5.344921	12.712716
1.140000	5.929015	15.525350
1.160000	6.894042	18.264166
1.180000	8.227420	20.893459
