Coordinates
version=1
nRows=60
nColumns=3
inDegrees=yes
endheader
time	knee_angle_r	hip_flexion_r
0.000000	5.330685	6.896175
0.020000	6.814441	11.265692
0.040000	5.729199	15.036090
0.060000	9.753093	20.512306
0.080000	14.793348	23.757744
0.100000	10.811995	20.071362
0.120000	12.239212	23.702867
0.140000	17.654672	29.409715
0.160000	19.585629	24.680668
0.180000	21.375972	30.114962
0.200000	20.994851	32.361744
0.220000	26.571246	36.783112
0.240000	31.726427	36.089735
0.260000	28.659291	33.954421
0.280000	34.400626	33.932526
0.300000	33.141293	33.984209
0.320000	37.997742	37.851656
0.340000	39.273063	32.090700
0.360000	46.897205	31.215784
0.380000	46.440088	31.382431
0.400000	53.497493	28.455974
0.420000	55.364724	26.275323
0.440000	56.285126	21.773625
0.460000	50.962325	22.128681
0.480000	58.256720	18.486961
0.500000	60.763268	19.822795
0.520000	61.946941	15.759937
0.540000	57.368019	11.231022
0.560000	60.525166	10.107894
0.580000	58.671457	4.751433
0.600000	58.482259	5.451163
0.620000	63.055495	0.118910
0.640000	56.090000	-0.970706
0.660000	56.748354	-8.057703
0.680000	57.547641	-6.173511
0.700000	50.932899	-13.250088
0.720000	49.907321	-15.860959
0.740000	47.933870	-13.007854
0.760000	44.989614	-15.682259
0.780000	38.191188	-13.904378
0.800000	39.073382	-9.269483
0.820000	39.849944	-17.204952
0.840000	28.050501	-16.603991
0.860000	32.218666	-14.124393
0.880000	27.017064	-12.679718
0.900000	21.861844	-13.317654
0.920000	27.060978	-12.059390
0.940000	20.801747	-8.177238
0.960000	12.587279	-6.764365
0.980000	14.324186	-8.545340
1.000000	14.018684	-3.849813
1.020000	10.206356	-1.078149
1.040000	11.621393	-1.173285
1.060000	8.504587	4.851340
1.080000	10.180196	4.869485
1.100000	12.318028	12.294328
1.120000	6.151467	13.195811
1.140000	9.313554	15.749847
1.160000	8.182740	16.787825
1.180000	11.154508	20.598164
